TRANSIT 16 [?]          
1 02807U 67048A   22194.35098187  .00000110  00000+0  15589-3 0  9993
2 02807  89.6524  35.6074 0021916 122.6250  51.1655 13.50315467714263
TRANSIT 17 [?]          
1 02965U 67092A   22194.55174439  .00000075  00000+0  95582-4 0  9996
2 02965  89.2416 121.4363 0045458 259.8437 273.9025 13.53027804702165
TRANSIT 18 [?]          
1 03133U 68012A   22194.45722980  .00000113  00000+0  15663-3 0  9990
2 03133  90.0068 271.6021 0075156 184.2894 189.2808 13.51154514400600
NNSS 19 [?]             
1 04507U 70067A   22194.55941563  .00000129  00000+0  17135-3 0  9993
2 04507  89.9211 239.1401 0170555 308.9801  49.6260 13.50828501553687
NNSS O-20 [?]           
1 06909U 73081A   22194.46929410  .00000183  00000+0  17895-3 0  9990
2 06909  89.8200 276.9642 0155253 218.3879 140.6156 13.70681439632576
TRANSAT [?]             
1 10457U 77106A   22194.59156281  .00000053  00000+0  69128-4 0  9990
2 10457  89.6845 121.6733 0024543 187.0011 347.2461 13.48680384199188
NOVA I [?]              
1 12458U 81044A   22194.49394757  .00000069  00000+0  14285-3 0  9990
2 12458  89.8903 107.3979 0013105 312.8191 221.1692 13.23064724986783
NOVA 3 [?]              
1 15362U 84110A   22194.37782343  .00000063  00000+0  12949-3 0  9992
2 15362  90.0975  67.2315 0031955 167.5847   6.5020 13.22834070821930
OSCAR 30 [?]            
1 15935U 85066A   22194.60629640  .00000081  00000+0  13225-3 0  9993
2 15935  90.1777  78.3768 0169372   5.3687   5.3803 13.35757658797891
OSCAR 24 [?]            
1 15936U 85066B   22194.41836499  .00000075  00000+0  12047-3 0  9999
2 15936  90.1722  70.3444 0170075  11.5601 161.2218 13.35617848799780
POLAR BEAR [?]          
1 17070U 86088A   22194.86451644  .00000092  00000+0  85055-4 0  9998
2 17070  89.5623 236.3948 0036913 284.6518 249.2689 13.74870758788576
OSCAR 27 [?]            
1 18361U 87080A   22194.48777045  .00000103  00000+0  15725-3 0  9998
2 18361  90.3282  35.1063 0103678 197.9395 161.8083 13.44565289707818
OSCAR 29 [?]            
1 18362U 87080B   22194.34271312  .00000108  00000+0  16708-3 0  9997
2 18362  90.3294  35.4315 0104748 218.9194 315.5761 13.44150686707378
OSCAR 23 [?]            
1 19070U 88033A   22194.39542942  .00000032  00000+0  45692-4 0  9999
2 19070  90.3328 337.5843 0191331  51.9750 335.5238 13.27523184656891
OSCAR 32 [?]            
1 19071U 88033B   22194.86330494  .00000004  00000+0 -10221-4 0  9999
2 19071  90.3330 337.6854 0189263  38.6988 114.0780 13.27703063657477
NOVA 11 [?]             
1 19223U 88052A   22194.63369385  .00000073  00000+0  15286-3 0  9995
2 19223  89.9751  80.8172 0029371 210.6493 165.6068 13.22745733644745
OSCAR 25 [?]            
1 19419U 88074A   22194.50287937  .00000082  00000+0  12683-3 0  9992
2 19419  90.0023  17.9030 0095479 205.6491 170.6555 13.42296472658931
OSCAR 31 [?]            
1 19420U 88074B   22194.44102265  .00000054  00000+0  77837-4 0  9999
2 19420  90.0034  18.0816 0093836 199.9164 170.3736 13.42305439659030
